[{"OBJECT_NAME":"JILIN-1 GAOFEN 2F","OBJECT_ID":"2021-097A","EPOCH":"2026-03-09T22:15:16.366464","MEAN_MOTION":15.06938169,"ECCENTRICITY":0.00186372,"INCLINATION":97.6538,"RA_OF_ASC_NODE":195.5232,"ARG_OF_PERICENTER":201.1609,"MEAN_ANOMALY":158.885,"EPHEMERIS_TYPE":0,"CLASSIFICATION_TYPE":"U","NORAD_CAT_ID":49338,"ELEMENT_SET_NO":999,"REV_AT_EPOCH":24136,"BSTAR":0.0003789548,"MEAN_MOTION_DOT":5.624e-5,"MEAN_MOTION_DDOT":0},{"OBJECT_NAME":"STARLINK-5587","OBJECT_ID":"2023-094AD","EPOCH":"2026-03-09T05:07:26.005152","MEAN_MOTION":15.02528428,"ECCENTRICITY":0.00010866,"INCLINATION":43.0047,"RA_OF_ASC_NODE":20.3132,"ARG_OF_PERICENTER":272.5946,"MEAN_ANOMALY":87.4772,"EPHEMERIS_TYPE":0,"CLASSIFICATION_TYPE":"U","NORAD_CAT_ID":57245,"ELEMENT_SET_NO":999,"REV_AT_EPOCH":14719,"BSTAR":-0.00011873152,"MEAN_MOTION_DOT":-1.807e-5,"MEAN_MOTION_DDOT":0}]
